{
  "norad_id": 53718,
  "name": "STARLINK-4695",
  "history": [
    {
      "epoch": "2026-03-28T15:51:32.881536",
      "apogee_km": 540.6505510043535,
      "perigee_km": 538.816346833527,
      "latitude_deg": -53.132568138249155,
      "longitude_deg": -24.7634649600368,
      "semi_major_axis_km": 6917.8704489189395,
      "eccentricity": 0.00013257,
      "inclination_deg": 53.2175,
      "raan_deg": 169.2214,
      "arg_perigee_deg": 93.7346,
      "mean_anomaly_deg": 266.3798,
      "mean_motion_rev_day": 15.08843252
    }
  ]
}